STARLINK-31195          
1 58796U 24012K   26067.59543388  .00000765  00000+0  37318-4 0  9993
2 58796  43.0011 171.8589 0001213 278.6166  81.4548 15.27590860121061
TEVEL2-8                
1 63239U 25052AF  26068.66815442  .00019130  00000+0  69304-3 0  9993
2 63239  97.4055 324.2923 0008031 124.9191 235.2804 15.28392908 54807
